     3.00           N                   E                   RINEX VERSION / TYPE
BRD_USR             ESA                 20190111 191706  UTCPGM / RUN BY / DATE
 GAL   4.5750E+01  3.1250E-02 -1.9836E-03  0.0000E+00       IONOSPHERIC CORR
GAUT  2.7939677238E-09-1.776356839E-15 432000 2035 GSTB   0 TIME SYSTEM CORR
GPGA  2.1827872843E-09 1.199040867E-14 518400 2035 GSTB   0 TIME SYSTEM CORR
                                                            END OF HEADER
E14 2019 01 11 16 50 00 6.461416895036E-03-5.627498467220E-12 0.000000000000E+00
     5.300000000000E+01 1.715312500000E+02 5.101283917523E-09-2.639331956233E+00
     7.541850209236E-06 1.662792494753E-01 8.419156074524E-07 5.289375329971E+03
     4.926000000000E+05 3.665685653687E-06-1.465144601085E+00 2.123415470123E-07
     8.826240910076E-01 3.029062500000E+02 1.456702121330E+00-6.215258890480E-09
     8.357490980188E-11 2.580000000000E+02 2.035000000000E+03 0.000000000000E+00
     3.120000000000E+00 5.600000000000E+01 3.306195139885E-08 0.000000000000E+00
     4.933000000000E+05 0.000000000000E+00 0.000000000000E+00 0.000000000000E+00
E19 2019 01 11 16 50 00-9.199953638017E-06 3.410605131648E-13 0.000000000000E+00
     5.300000000000E+01 4.437500000000E+00 3.114415442190E-09 1.393236725193E+00
     6.332993507385E-08 1.316708512604E-04 1.206994056702E-05 5.440624856949E+03
     4.926000000000E+05-1.117587089539E-08 1.238571626223E+00-1.862645149231E-09
     9.582061456350E-01 8.050000000000E+01 2.387756799998E+00-5.489157216860E-09
     3.032269163325E-10 2.580000000000E+02 2.035000000000E+03 0.000000000000E+00
     3.120000000000E+00 0.000000000000E+00-8.614733815193E-09 0.000000000000E+00
     4.933000000000E+05 0.000000000000E+00 0.000000000000E+00 0.000000000000E+00
E21 2019 01 11 16 50 00-5.139264976606E-04-1.804778548831E-12 0.000000000000E+00
     5.300000000000E+01-4.218750000000E+00 2.668325432179E-09 2.268176365004E+00
    -2.644956111908E-07 4.775403067470E-05 8.344650268555E-06 5.440627752304E+03
     4.926000000000E+05-4.097819328308E-08-2.951389666918E+00 1.303851604462E-08
     9.897323301414E-01 1.770625000000E+02 1.453342534350E-01-5.337008022092E-09
    -5.200216609895E-10 2.580000000000E+02 2.035000000000E+03 0.000000000000E+00
     3.120000000000E+00 0.000000000000E+00-2.561137080193E-09 0.000000000000E+00
     4.933000000000E+05 0.000000000000E+00 0.000000000000E+00 0.000000000000E+00
E25 2019 01 11 16 50 00 1.926883240230E-03-1.139710548159E-11 0.000000000000E+00
     5.300000000000E+01-6.843750000000E+00 2.789401904071E-09 5.968524420085E-01
    -4.097819328308E-07 1.959580695257E-04 7.724389433861E-06 5.440621469498E+03
     4.926000000000E+05 5.029141902924E-08-2.951398856969E+00 2.048909664154E-08
     9.897380077265E-01 1.895937500000E+02-1.323354829920E+00-5.424868824704E-09
    -5.335936548889E-10 2.580000000000E+02 2.035000000000E+03 0.000000000000E+00
     3.120000000000E+00 0.000000000000E+00-1.164153218269E-09 0.000000000000E+00
     4.933000000000E+05 0.000000000000E+00 0.000000000000E+00 0.000000000000E+00
E26 2019 01 11 16 50 00 5.031365901232E-03-4.328626346251E-11 0.000000000000E+00
     5.300000000000E+01 1.425000000000E+01 2.992624654829E-09 2.322294527997E+00
     7.320195436478E-07 3.204337554052E-04 2.171844244003E-06 5.440605100632E+03
     4.926000000000E+05 5.215406417847E-08-8.598458976787E-01 3.725290298462E-08
     9.782699427441E-01 3.023750000000E+02-2.012878837123E+00-5.796670026002E-09
     2.182233755938E-10 2.580000000000E+02 2.035000000000E+03 0.000000000000E+00
     3.120000000000E+00 0.000000000000E+00 1.396983861923E-09 0.000000000000E+00
     4.933000000000E+05 0.000000000000E+00 0.000000000000E+00 0.000000000000E+00
E27 2019 01 11 16 50 00 5.517830140889E-04-7.645439836779E-12 0.000000000000E+00
     5.300000000000E+01-1.312500000000E+00 2.739399821284E-09-2.240065087725E+00
    -1.844018697739E-07 1.922806259245E-04 7.931143045425E-06 5.440628749847E+03
     4.926000000000E+05-6.146728992462E-08-2.951372939912E+00-1.862645149231E-08
     9.897044103498E-01 1.816250000000E+02-8.427464012332E-01-5.408082411197E-09
    -5.368080744967E-10 2.580000000000E+02 2.035000000000E+03 0.000000000000E+00
     3.120000000000E+00 0.000000000000E+00-3.026798367500E-09 0.000000000000E+00
     4.933000000000E+05 0.000000000000E+00 0.000000000000E+00 0.000000000000E+00
E30 2019 01 11 16 50 00 5.196685087867E-03-3.043965079996E-11 0.000000000000E+00
     5.300000000000E+01-6.281250000000E+00 2.829403570301E-09-2.872913521454E+00
    -2.626329660416E-07 3.114346181974E-04 7.968395948410E-06 5.440616598129E+03
     4.926000000000E+05 2.235174179077E-08-2.945375258131E+00-4.842877388000E-08
     9.877204813112E-01 1.815625000000E+02 5.558324809282E-01-5.465941964137E-09
    -4.782342060886E-10 2.580000000000E+02 2.035000000000E+03 0.000000000000E+00
     3.120000000000E+00 0.000000000000E+00-3.026798367500E-09 0.000000000000E+00
     4.933000000000E+05 0.000000000000E+00 0.000000000000E+00 0.000000000000E+00
E33 2019 01 11 16 50 00 8.479031384923E-04 9.947598300641E-14 0.000000000000E+00
     5.300000000000E+01 2.215625000000E+01 2.961551931954E-09 9.542178286484E-01
     1.117587089539E-06 3.685151459649E-04 2.300366759300E-06 5.440595052719E+03
     4.926000000000E+05 2.793967723846E-08-8.687947123985E-01-3.352761268616E-08
     9.851488658960E-01 3.013125000000E+02-1.436372643669E+00-5.823814013801E-09
     2.389385241772E-10 2.580000000000E+02 2.035000000000E+03 0.000000000000E+00
     3.120000000000E+00 5.600000000000E+01-8.381903171539E-09 0.000000000000E+00
     4.933000000000E+05 0.000000000000E+00 0.000000000000E+00 0.000000000000E+00
E36 2019 01 11 16 50 00 7.608585874550E-04-4.447997525858E-12 0.000000000000E+00
     5.300000000000E+01 2.206250000000E+01 2.919764477053E-09-1.288218974051E+00
     1.095235347748E-06 3.334895009175E-04 3.140419721603E-06 5.440593080521E+03
     4.926000000000E+05-1.862645149231E-08-8.687680521794E-01-5.587935447693E-09
     9.851573815421E-01 2.847187500000E+02-1.548455031025E+00-5.747025100949E-09
     2.517962026082E-10 2.580000000000E+02 2.035000000000E+03 0.000000000000E+00
     3.120000000000E+00 5.600000000000E+01 1.164153218269E-09 0.000000000000E+00
     4.933000000000E+05 0.000000000000E+00 0.000000000000E+00 0.000000000000E+00
E24 2019 01 11 16 20 00 6.291307334322E-03-1.971045548999E-11 0.000000000000E+00
     5.000000000000E+01-7.531250000000E+00 2.861547766379E-09-6.731419170056E-01
    -4.805624485016E-07 4.783672047779E-04 7.782131433487E-06 5.440611261368E+03
     4.908000000000E+05-1.862645149231E-09-2.945309284914E+00-2.421438694000E-08
     9.877378051871E-01 1.841250000000E+02 4.866032958147E-01-5.482371219910E-09
    -5.389510209019E-10 5.210000000000E+02 2.035000000000E+03 0.000000000000E+00
     3.120000000000E+00 0.000000000000E+00 4.284083843231E-08 4.796311259270E-08
     4.933150000000E+05 0.000000000000E+00 0.000000000000E+00 0.000000000000E+00
E26 2019 01 11 16 50 00 5.031366366893E-03-4.328626346251E-11 0.000000000000E+00
     5.300000000000E+01 1.425000000000E+01 2.992624654829E-09 2.322294527997E+00
     7.320195436478E-07 3.204337554052E-04 2.171844244003E-06 5.440605100632E+03
     4.926000000000E+05 5.215406417847E-08-8.598458976787E-01 3.725290298462E-08
     9.782699427441E-01 3.023750000000E+02-2.012878837123E+00-5.796670026002E-09
     2.182233755938E-10 5.210000000000E+02 2.035000000000E+03 0.000000000000E+00
     3.120000000000E+00 0.000000000000E+00 1.396983861923E-09 1.396983861923E-09
     4.933150000000E+05 0.000000000000E+00 0.000000000000E+00 0.000000000000E+00
E30 2019 01 11 16 50 00 5.196684855036E-03-3.043965079996E-11 0.000000000000E+00
     5.300000000000E+01-6.281250000000E+00 2.829403570301E-09-2.872913521454E+00
    -2.626329660416E-07 3.114346181974E-04 7.968395948410E-06 5.440616598129E+03
     4.926000000000E+05 2.235174179077E-08-2.945375258131E+00-4.842877388000E-08
     9.877204813112E-01 1.815625000000E+02 5.558324809282E-01-5.465941964137E-09
    -4.782342060886E-10 5.210000000000E+02 2.035000000000E+03 0.000000000000E+00
     3.120000000000E+00 0.000000000000E+00-3.026798367500E-09-3.958120942116E-09
     4.933150000000E+05 0.000000000000E+00 0.000000000000E+00 0.000000000000E+00
E03 2019 01 11 16 50 00-1.210368354805E-04-4.234834705130E-12 0.000000000000E+00
     5.300000000000E+01-2.459375000000E+01 3.278350842186E-09-5.147315882939E-02
    -1.160427927971E-06 2.579247811809E-04 1.084059476852E-05 5.440619422913E+03
     4.926000000000E+05 9.313225746155E-09 1.241833203543E+00 7.450580596924E-09
     9.524335572064E-01 1.076875000000E+02 6.111492053889E-01-5.499157633417E-09
     3.010839699273E-10 5.210000000000E+02 2.035000000000E+03 0.000000000000E+00
     3.120000000000E+00 0.000000000000E+00-1.862645149231E-09-2.095475792885E-09
     4.933450000000E+05 0.000000000000E+00 0.000000000000E+00 0.000000000000E+00
E03 2019 01 11 16 50 00-1.210368936881E-04-4.234834705130E-12 0.000000000000E+00
     5.300000000000E+01-2.459375000000E+01 3.278350842186E-09-5.147315882939E-02
    -1.160427927971E-06 2.579247811809E-04 1.084059476852E-05 5.440619422913E+03
     4.926000000000E+05 9.313225746155E-09 1.241833203543E+00 7.450580596924E-09
     9.524335572064E-01 1.076875000000E+02 6.111492053889E-01-5.499157633417E-09
     3.010839699273E-10 2.580000000000E+02 2.035000000000E+03 0.000000000000E+00
     3.120000000000E+00 0.000000000000E+00-1.862645149231E-09 0.000000000000E+00
     4.933500000000E+05 0.000000000000E+00 0.000000000000E+00 0.000000000000E+00
